{
  "type": "FeatureCollection",
  "features": [
    {
      "type": "Feature",
      "properties": {
        "norad_id": 66450,
        "name": "STARLINK-35334",
        "group": "last-30-days",
        "lat": 16.97968903189046,
        "lon": -133.67256675779876,
        "alt_km": 412.234618164156,
        "timestamp": "2025-12-09T14:52:24.940807+00:00",
        "meta_object_name": "STARLINK-35334",
        "meta_object_id": "2025-259AE",
        "meta_epoch": "2025-12-08T22:45:06.386112",
        "meta_mean_motion": 15.50615981,
        "meta_eccentricity": 0.0001305,
        "meta_inclination": 42.9969,
        "meta_ra_of_asc_node": 69.3883,
        "meta_arg_of_pericenter": 271.9278,
        "meta_mean_anomaly": 88.1433,
        "meta_ephemeris_type": 0,
        "meta_classification_type": "U",
        "meta_norad_cat_id": 66450,
        "meta_element_set_no": 999,
        "meta_rev_at_epoch": 558,
        "meta_bstar": 0.0020122,
        "meta_mean_motion_dot": 0.00119681,
        "meta_mean_motion_ddot": 0,
        "tle_line1": "1 66450U 25259AE  25342.94799058  .00119681  00000+0  20122-2 0  9995",
        "tle_line2": "2 66450  42.9969  69.3883 0001305 271.9278  88.1433 15.50615981  5580"
      },
      "geometry": {
        "type": "Point",
        "coordinates": [
          -133.67256675779876,
          16.97968903189046
        ]
      }
    },
    {
      "type": "Feature",
      "properties": {
        "norad_id": 66454,
        "name": "VIASAT-3 F2",
        "group": "last-30-days",
        "lat": -5.418574980436468,
        "lon": -168.4666016753459,
        "alt_km": 15403.304557324172,
        "timestamp": "2025-12-09T14:52:24.940821+00:00",
        "meta_object_name": "VIASAT-3 F2",
        "meta_object_id": "2025-261A",
        "meta_epoch": "2025-12-06T17:04:58.090944",
        "meta_mean_motion": 2.24196708,
        "meta_eccentricity": 0.23030921,
        "meta_inclination": 5.516,
        "meta_ra_of_asc_node": 292.8248,
        "meta_arg_of_pericenter": 186.81,
        "meta_mean_anomaly": 221.0538,
        "meta_ephemeris_type": 0,
        "meta_classification_type": "U",
        "meta_norad_cat_id": 66454,
        "meta_element_set_no": 999,
        "meta_rev_at_epoch": 51,
        "meta_bstar": 0,
        "meta_mean_motion_dot": -7.3e-07,
        "meta_mean_motion_ddot": 0,
        "tle_line1": "1 66454U 25261A   25340.71178346 -.00000073  00000+0  00000+0 0  9991",
        "tle_line2": "2 66454   5.5160 292.8248 2303092 186.8100 221.0538  2.24196708   518"
      },
      "geometry": {
        "type": "Point",
        "coordinates": [
          -168.4666016753459,
          -5.418574980436468
        ]
      }
    },
    {
      "type": "Feature",
      "properties": {
        "norad_id": 66455,
        "name": "ATLAS 5 CENTAUR R/B",
        "group": "last-30-days",
        "lat": -4.655599606850919,
        "lon": -117.03536850100512,
        "alt_km": 20231.962498336823,
        "timestamp": "2025-12-09T14:52:24.940833+00:00",
        "meta_object_name": "ATLAS 5 CENTAUR R/B",
        "meta_object_id": "2025-261B",
        "meta_epoch": "2025-12-09T04:50:38.740128",
        "meta_mean_motion": 2.28259592,
        "meta_eccentricity": 0.23295213,
        "meta_inclination": 6.1502,
        "meta_ra_of_asc_node": 291.9704,
        "meta_arg_of_pericenter": 185.7729,
        "meta_mean_anomaly": 117.5169,
        "meta_ephemeris_type": 0,
        "meta_classification_type": "U",
        "meta_norad_cat_id": 66455,
        "meta_element_set_no": 999,
        "meta_rev_at_epoch": 56,
        "meta_bstar": 0,
        "meta_mean_motion_dot": -8e-07,
        "meta_mean_motion_ddot": 0,
        "tle_line1": "1 66455U 25261B   25343.20183727 -.00000080  00000+0  00000+0 0  9996",
        "tle_line2": "2 66455   6.1502 291.9704 2329521 185.7729 117.5169  2.28259592   562"
      },
      "geometry": {
        "type": "Point",
        "coordinates": [
          -117.03536850100512,
          -4.655599606850919
        ]
      }
    },
    {
      "type": "Feature",
      "properties": {
        "norad_id": 66456,
        "name": "STARLINK-35643",
        "group": "last-30-days",
        "lat": 41.0726341186778,
        "lon": -159.67978118738662,
        "alt_km": 438.3677790903894,
        "timestamp": "2025-12-09T14:52:24.940844+00:00",
        "meta_object_name": "STARLINK-35643",
        "meta_object_id": "2025-262A",
        "meta_epoch": "2025-12-09T08:00:01.999872",
        "meta_mean_motion": 15.40713673,
        "meta_eccentricity": 0.00012344,
        "meta_inclination": 43.0003,
        "meta_ra_of_asc_node": 91.2376,
        "meta_arg_of_pericenter": 269.2789,
        "meta_mean_anomaly": 45.9007,
        "meta_ephemeris_type": 0,
        "meta_classification_type": "U",
        "meta_norad_cat_id": 66456,
        "meta_element_set_no": 999,
        "meta_rev_at_epoch": 509,
        "meta_bstar": -0.0011103983,
        "meta_mean_motion_dot": -0.00046426,
        "meta_mean_motion_ddot": 0,
        "tle_line1": "1 66456U 25262A   25343.33335648 -.00046426  00000+0 -11104-2 0  9998",
        "tle_line2": "2 66456  43.0003  91.2376 0001234 269.2789  45.9007 15.40713673  5096"
      },
      "geometry": {
        "type": "Point",
        "coordinates": [
          -159.67978118738662,
          41.0726341186778
        ]
      }
    },
    {
      "type": "Feature",
      "properties": {
        "norad_id": 66457,
        "name": "STARLINK-35466",
        "group": "last-30-days",
        "lat": 31.292802924655962,
        "lon": -131.18846437697218,
        "alt_km": 439.6434118201805,
        "timestamp": "2025-12-09T14:52:24.940855+00:00",
        "meta_object_name": "STARLINK-35466",
        "meta_object_id": "2025-262B",
        "meta_epoch": "2025-12-09T08:00:01.999872",
        "meta_mean_motion": 15.40645531,
        "meta_eccentricity": 9.326e-05,
        "meta_inclination": 43.0001,
        "meta_ra_of_asc_node": 91.1763,
        "meta_arg_of_pericenter": 274.759,
        "meta_mean_anomaly": 65.3191,
        "meta_ephemeris_type": 0,
        "meta_classification_type": "U",
        "meta_norad_cat_id": 66457,
        "meta_element_set_no": 999,
        "meta_rev_at_epoch": 509,
        "meta_bstar": 0.0015718907,
        "meta_mean_motion_dot": 0.00065807,
        "meta_mean_motion_ddot": 0,
        "tle_line1": "1 66457U 25262B   25343.33335648  .00065807  00000+0  15719-2 0  9997",
        "tle_line2": "2 66457  43.0001  91.1763 0000932 274.7590  65.3191 15.40645531  5096"
      },
      "geometry": {
        "type": "Point",
        "coordinates": [
          -131.18846437697218,
          31.292802924655962
        ]
      }
    },
    {
      "type": "Feature",
      "properties": {
        "norad_id": 66458,
        "name": "STARLINK-35684",
        "group": "last-30-days",
        "lat": 37.058292443999164,
        "lon": -144.5753677365999,
        "alt_km": 438.8212504764342,
        "timestamp": "2025-12-09T14:52:24.940865+00:00",
        "meta_object_name": "STARLINK-35684",
        "meta_object_id": "2025-262C",
        "meta_epoch": "2025-12-09T08:00:01.999872",
        "meta_mean_motion": 15.40661034,
        "meta_eccentricity": 0.00012471,
        "meta_inclination": 43.0002,
        "meta_ra_of_asc_node": 91.2072,
        "meta_arg_of_pericenter": 258.7381,
        "meta_mean_anomaly": 68.8501,
        "meta_ephemeris_type": 0,
        "meta_classification_type": "U",
        "meta_norad_cat_id": 66458,
        "meta_element_set_no": 999,
        "meta_rev_at_epoch": 509,
        "meta_bstar": 0.001562397,
        "meta_mean_motion_dot": 0.00065438,
        "meta_mean_motion_ddot": 0,
        "tle_line1": "1 66458U 25262C   25343.33335648  .00065438  00000+0  15624-2 0  9993",
        "tle_line2": "2 66458  43.0002  91.2072 0001247 258.7381  68.8501 15.40661034  5091"
      },
      "geometry": {
        "type": "Point",
        "coordinates": [
          -144.5753677365999,
          37.058292443999164
        ]
      }
    },
    {
      "type": "Feature",
      "properties": {
        "norad_id": 66459,
        "name": "STARLINK-35449",
        "group": "last-30-days",
        "lat": 24.329345480731188,
        "lon": -119.53020179842373,
        "alt_km": 440.8362389418162,
        "timestamp": "2025-12-09T14:52:24.940877+00:00",
        "meta_object_name": "STARLINK-35449",
        "meta_object_id": "2025-262D",
        "meta_epoch": "2025-12-09T08:00:01.999872",
        "meta_mean_motion": 15.40641157,
        "meta_eccentricity": 0.00012191,
        "meta_inclination": 43.0003,
        "meta_ra_of_asc_node": 91.1455,
        "meta_arg_of_pericenter": 275.7001,
        "meta_mean_anomaly": 76.8259,
        "meta_ephemeris_type": 0,
        "meta_classification_type": "U",
        "meta_norad_cat_id": 66459,
        "meta_element_set_no": 999,
        "meta_rev_at_epoch": 509,
        "meta_bstar": 0.0015809394,
        "meta_mean_motion_dot": 0.00066181,
        "meta_mean_motion_ddot": 0,
        "tle_line1": "1 66459U 25262D   25343.33335648  .00066181  00000+0  15809-2 0  9995",
        "tle_line2": "2 66459  43.0003  91.1455 0001219 275.7001  76.8259 15.40641157  5097"
      },
      "geometry": {
        "type": "Point",
        "coordinates": [
          -119.53020179842373,
          24.329345480731188
        ]
      }
    }
  ]
}